SL-14 R/B               
1 21423U 91042B   26015.74913803  .00000259  00000+0  29744-4 0  9992
2 21423  82.4928 269.8356 0018379  57.7557 302.5435 14.81774346845239
ERS-1                   
1 21574U 91050A   26015.65974243  .00000207  00000+0  81109-4 0  9999
2 21574  98.7897  32.5624 0031978   1.5808 358.5474 14.39396072808108
ARIANE 40 R/B           
1 21610U 91050F   26015.76737058  .00000204  00000+0  73721-4 0  9991
2 21610  98.2116  69.9622 0002370 215.9668 144.1363 14.42844520811367
INTERCOSMOS 25          
1 21819U 91086A   26015.89876259  .00000656  00000+0  12939-3 0  9996
2 21819  82.6086 341.9134 1486006 230.7127 115.2708 12.11855620490294
SL-8 R/B                
1 21876U 92008B   26015.85659524  .00000060  00000+0  46239-4 0  9994
2 21876  82.9289 307.0737 0033391 283.1124 138.4443 13.75966323702158
SL-8 R/B                
1 21938U 92020B   26015.59364313  .00000151  00000+0  14085-3 0  9991
2 21938  82.9295 193.1769 0030251  86.3484 340.8705 13.75537940693830
USA 81                  
1 21949U 92023A   26015.84595922  .00000143  00000+0  45755-4 0  9996
2 21949  85.0103 161.9075 0001739 117.6379 242.4991 14.32342409 87229
COSMOS 2219             
1 22219U 92076A   26015.75004592 -.00000076  00000+0 -15074-4 0  9991
2 22219  71.0619 128.7393 0020698 280.2580  79.6208 14.14081360710890
SL-16 R/B               
1 22220U 92076B   26015.81711539  .00000103  00000+0  75296-4 0  9997
2 22220  71.0015 299.7491 0012919 186.3639 234.3476 14.16849898714349
COSMOS 2221             
1 22236U 92080A   26015.86671951  .00001460  00000+0  12784-3 0  9996
2 22236  82.5059 329.6575 0015116  17.0684 343.1043 14.95929034772890
SL-16 R/B               
1 22285U 92093B   26015.73676259  .00000284  00000+0  16997-3 0  9999
2 22285  71.0222 115.4311 0003751 356.8886   3.2213 14.15437313705668
COSMOS 2228             
1 22286U 92094A   26015.91756471  .00001410  00000+0  12008-3 0  9997
2 22286  82.5189 287.8329 0019389 116.5171 243.8043 14.96912144768169
